[{"OBJECT_NAME":"OBJECT A","OBJECT_ID":"2023-085A","EPOCH":"2026-03-09T21:42:39.504096","MEAN_MOTION":15.28003151,"ECCENTRICITY":0.00073195,"INCLINATION":97.4858,"RA_OF_ASC_NODE":178.2033,"ARG_OF_PERICENTER":32.2499,"MEAN_ANOMALY":327.9186,"EPHEMERIS_TYPE":0,"CLASSIFICATION_TYPE":"U","NORAD_CAT_ID":57004,"ELEMENT_SET_NO":999,"REV_AT_EPOCH":15139,"BSTAR":0.00063583858,"MEAN_MOTION_DOT":0.0001733,"MEAN_MOTION_DDOT":0},{"OBJECT_NAME":"STARLINK-30402","OBJECT_ID":"2023-138V","EPOCH":"2026-03-09T22:00:01.999584","MEAN_MOTION":15.25118124,"ECCENTRICITY":0.00016397,"INCLINATION":42.9996,"RA_OF_ASC_NODE":232.7467,"ARG_OF_PERICENTER":315.8136,"MEAN_ANOMALY":84.1579,"EPHEMERIS_TYPE":0,"CLASSIFICATION_TYPE":"U","NORAD_CAT_ID":57827,"ELEMENT_SET_NO":999,"REV_AT_EPOCH":572,"BSTAR":0.035382216,"MEAN_MOTION_DOT":0.00981389,"MEAN_MOTION_DDOT":0}]
